ICEYE-X39               
1 60546U 24149CG  26195.49439885  .00002329  00000+0  19163-3 0  9992
2 60546  97.6789 272.1496 0006969  48.8482 311.3342 15.00069882104218
UMBRA-10                
1 60547U 24149CH  26195.21717552  .00008536  00000+0  41316-3 0  9994
2 60547  97.6983 282.9299 0001521 167.6601 192.4670 15.18833005104832
ICEYE-X33               
1 60548U 24149CJ  26195.23647047  .00002720  00000+0  21853-3 0  9991
2 60548  97.7365 274.2411 0001855  76.1000 284.0430 15.00879552104262
ICEYE-X40               
1 60549U 24149CK  26195.48910681  .00001421  00000+0  12502-3 0  9994
2 60549  97.6798 271.5462 0003990   7.7441 352.3842 14.98067634104160
SATELIOT_1              
1 60550U 24149CL  26195.47802802  .00001104  00000+0  98046-4 0  9996
2 60550  97.6733 270.9221 0005719 354.4115   5.7042 14.98161106104157
BRO-14                  
1 60551U 24149CM  26195.48120013  .00000861  00000+0  81377-4 0  9993
2 60551  97.6862 270.7681 0006769  19.8532 340.2951 14.96234526104072
SATELIOT_3              
1 60552U 24149CN  26195.45394432  .00000387  00000+0  37542-4 0  9997
2 60552  97.6820 271.7159 0005127   7.9862 352.1441 14.98163081104164
BRO-15                  
1 60553U 24149CP  26195.19637188  .00000501  00000+0  49480-4 0  9999
2 60553  97.6795 270.0656 0007958   7.4318 352.7020 14.96221496104044
UM5-RIBAT               
1 60554U 24149CQ  26195.46829787  .00001274  00000+0  10389-3 0  9991
2 60554  97.6608 272.8988 0000794 355.8343   4.2874 15.01216457104285
UM5-EOSAT               
1 60555U 24149CR  26195.49250744  .00001983  00000+0  15696-3 0  9999
2 60555  97.6776 273.9224 0009134  37.3948 322.7911 15.01725988104315
LASARSAT                
1 62391U 24247Q   26195.48064535  .00022152  00000+0  41949-3 0  9999
2 62391  44.9737 108.6488 0007294 161.9979 198.1171 15.48013895 87542
CROCUBE                 
1 62394U 24247T   26195.44298929  .00025737  00000+0  45084-3 0  9990
2 62394  44.9723 105.7215 0007458 167.1731 192.9351 15.50156590 87570
TEVEL2-4                
1 63213U 25052D   26195.62495839  .00010282  00000+0  29977-3 0  9997
2 63213  97.3873  92.0758 0003597  52.8081 307.3490 15.35553666 74320
TEVEL2-5                
1 63214U 25052E   26195.45314265  .00011440  00000+0  33521-3 0  9999
2 63214  97.3870  91.8435 0003666  54.7480 305.4106 15.35363898 74293
TEVEL2-6                
1 63215U 25052F   26195.46609805  .00011115  00000+0  32615-3 0  9990
2 63215  97.3875  91.8412 0003706  57.9315 302.2288 15.35326910 74291
TEVEL2-1                
1 63217U 25052H   26195.63531658  .00009885  00000+0  29557-3 0  9993
2 63217  97.3847  91.6018 0004319  61.6960 298.4718 15.34761887 74302
TEVEL2-3                
1 63218U 25052J   26195.62889895  .00009849  00000+0  29393-3 0  9990
2 63218  97.3851  91.6209 0004057  62.8078 297.3578 15.34824058 74304
TEVEL2-2                
1 63219U 25052K   26195.43985260  .00010436  00000+0  31184-3 0  9998
2 63219  97.3843  91.4091 0004376  62.3504 297.8183 15.34768971 74270
TEVEL2-9                
1 63237U 25052AD  26195.51839898  .00009603  00000+0  30606-3 0  9994
2 63237  97.3910  90.8020 0007729  59.2943 300.9060 15.32718885 74218
TEVEL2-7                
1 63238U 25052AE  26195.63004127  .00008849  00000+0  28504-3 0  9992
2 63238  97.3907  90.8176 0007809  58.3218 301.8784 15.32405359 74224
TEVEL2-8                
1 63239U 25052AF  26195.63855809  .00009111  00000+0  29351-3 0  9998
2 63239  97.3909  90.8024 0007831  59.3860 300.8153 15.32390847 74222
FORESAIL-1 PRIME        
1 66778U 25276DS  26195.46957664  .00002682  00000+0  13166-3 0  9993
2 66778  97.4194 268.2432 0002941  46.3647 313.7831 15.18934841 34549
