OBJECT_NAME,OBJECT_ID,EPOCH,MEAN_MOTION,ECCENTRICITY,INCLINATION,RA_OF_ASC_NODE,ARG_OF_PERICENTER,MEAN_ANOMALY,EPHEMERIS_TYPE,CLASSIFICATION_TYPE,NORAD_CAT_ID,ELEMENT_SET_NO,REV_AT_EPOCH,BSTAR,MEAN_MOTION_DOT,MEAN_MOTION_DDOT
ICEYE-X39,2024-149CG,2026-07-14T11:51:56.060640,15.00069882,.00069692,97.6789,272.1496,48.8482,311.3342,0,U,60546,999,10421,.19163259E-3,.2329E-4,0
UMBRA-10,2024-149CH,2026-07-14T05:12:43.964928,15.18833005,.00015219,97.6983,282.9299,167.6601,192.4670,0,U,60547,999,10483,.41315747E-3,.8536E-4,0
ICEYE-X33,2024-149CJ,2026-07-14T05:40:31.048608,15.00879552,.00018554,97.7365,274.2411,76.1000,284.0430,0,U,60548,999,10426,.21853064E-3,.272E-4,0
ICEYE-X40,2024-149CK,2026-07-14T11:44:18.828384,14.98067634,.00039907,97.6798,271.5462,7.7441,352.3842,0,U,60549,999,10416,.12501946E-3,.1421E-4,0
SATELIOT_1,2024-149CL,2026-07-14T11:28:21.620928,14.98161106,.00057194,97.6733,270.9221,354.4115,5.7042,0,U,60550,999,10415,.98045948E-4,.1104E-4,0
BRO-14,2024-149CM,2026-07-14T11:32:55.691232,14.96234526,.00067692,97.6862,270.7681,19.8532,340.2951,0,U,60551,999,10407,.81376597E-4,.861E-5,0
SATELIOT_3,2024-149CN,2026-07-14T10:53:40.789248,14.98163081,.00051279,97.6820,271.7159,7.9862,352.1441,0,U,60552,999,10416,.37541907E-4,.387E-5,0
BRO-15,2024-149CP,2026-07-14T04:42:46.530432,14.96221496,.00079582,97.6795,270.0656,7.4318,352.7020,0,U,60553,999,10404,.49480219E-4,.501E-5,0
UM5-RIBAT,2024-149CQ,2026-07-14T11:14:20.935968,15.01216457,.00007946,97.6608,272.8988,355.8343,4.2874,0,U,60554,999,10428,.10388967E-3,.1274E-4,0
UM5-EOSAT,2024-149CR,2026-07-14T11:49:12.642816,15.01725988,.00091345,97.6776,273.9224,37.3948,322.7911,0,U,60555,999,10431,.15696159E-3,.1983E-4,0
LASARSAT,2024-247Q,2026-07-14T11:32:07.758240,15.48013895,.00072949,44.9737,108.6488,161.9979,198.1171,0,U,62391,999,8754,.41949352E-3,.22152E-3,0
CROCUBE,2024-247T,2026-07-14T10:37:54.274656,15.50156590,.00074582,44.9723,105.7215,167.1731,192.9351,0,U,62394,999,8757,.45083664E-3,.25737E-3,0
TEVEL2-4,2025-052D,2026-07-14T14:59:56.404896,15.35553666,.00035976,97.3873,92.0758,52.8081,307.3490,0,U,63213,999,7432,.29976919E-3,.10282E-3,0
TEVEL2-5,2025-052E,2026-07-14T10:52:31.524960,15.35363898,.0003666,97.3870,91.8435,54.7480,305.4106,0,U,63214,999,7429,.33521463E-3,.1144E-3,0
TEVEL2-6,2025-052F,2026-07-14T11:11:10.871520,15.35326910,.0003706,97.3875,91.8412,57.9315,302.2288,0,U,63215,999,7429,.32615087E-3,.11115E-3,0
TEVEL2-1,2025-052H,2026-07-14T15:14:51.352512,15.34761887,.0004319,97.3847,91.6018,61.6960,298.4718,0,U,63217,999,7430,.2955724E-3,.9885E-4,0
TEVEL2-3,2025-052J,2026-07-14T15:05:36.869280,15.34824058,.0004057,97.3851,91.6209,62.8078,297.3578,0,U,63218,999,7430,.29393422E-3,.9849E-4,0
TEVEL2-2,2025-052K,2026-07-14T10:33:23.264640,15.34768971,.00043767,97.3843,91.4091,62.3504,297.8183,0,U,63219,999,7427,.3118402E-3,.10436E-3,0
TEVEL2-9,2025-052AD,2026-07-14T12:26:29.671872,15.32718885,.00077292,97.3910,90.8020,59.2943,300.9060,0,U,63237,999,7421,.3060602E-3,.9603E-4,0
TEVEL2-7,2025-052AE,2026-07-14T15:07:15.565728,15.32405359,.0007809,97.3907,90.8176,58.3218,301.8784,0,U,63238,999,7422,.28503749E-3,.8849E-4,0
TEVEL2-8,2025-052AF,2026-07-14T15:19:31.418976,15.32390847,.00078315,97.3909,90.8024,59.3860,300.8153,0,U,63239,999,7422,.29351441E-3,.9111E-4,0
FORESAIL-1 PRIME,2025-276DS,2026-07-14T11:16:11.421696,15.18934841,.00029413,97.4194,268.2432,46.3647,313.7831,0,U,66778,999,3454,.13165719E-3,.2682E-4,0
